{
"type": "FeatureCollection",
"name": "Total_2024",
"crs": { "type": "name", "properties": { "name": "urn:ogc:def:crs:OGC:1.3:CRS84" } },
"features": [
{ "type": "Feature", "properties": { "fid": 3, "NOM_SITE": "ECOLE NATIONALE Garde Biassou PM", "COM_LOC": "ST. RAPHAEL", "dep_nom": "NORD", "Latitude": 19.3813547, "Longitude": -72.2206436, "GMT_check": 1, "id": null }, "geometry": { "type": "MultiPoint", "coordinates": [ [ -72.2206436, 19.3813547 ] ] } },
{ "type": "Feature", "properties": { "fid": 6, "NOM_SITE": "Ecole Nationale de Mussote", "COM_LOC": "PAILLANT", "dep_nom": "NIPPES", "Latitude": 18.4159996286532, "Longitude": -73.201199457028594, "GMT_check": 1, "id": null }, "geometry": { "type": "MultiPoint", "coordinates": [ [ -73.201199457028594, 18.4159996286532 ] ] } },
{ "type": "Feature", "properties": { "fid": 13, "NOM_SITE": "Lycée National Jean Jacques Dessalines", "COM_LOC": "Grande Rivière du Nord", "dep_nom": "NORD", "Latitude": 19.572975, "Longitude": -72.172966666666696, "GMT_check": 1, "id": null }, "geometry": { "type": "MultiPoint", "coordinates": [ [ -72.172966666666696, 19.572975 ] ] } },
{ "type": "Feature", "properties": { "fid": 21, "NOM_SITE": "Ecole Nationale Dubourg", "COM_LOC": "Limonade", "dep_nom": "NORD", "Latitude": 19.663211111111099, "Longitude": -72.090008333333301, "GMT_check": 1, "id": null }, "geometry": { "type": "MultiPoint", "coordinates": [ [ -72.090008333333301, 19.663211111111099 ] ] } },
{ "type": "Feature", "properties": { "fid": 26, "NOM_SITE": "Terrain Les Anglais", "COM_LOC": "LES ANGLAIS", "dep_nom": "SUD", "Latitude": 18.312917095104499, "Longitude": -74.225266984205703, "GMT_check": 1, "id": null }, "geometry": { "type": "MultiPoint", "coordinates": [ [ -74.225266984205703, 18.312917095104499 ] ] } },
{ "type": "Feature", "properties": { "fid": 27, "NOM_SITE": "École Nationale de Zanglais d’Aquin", "COM_LOC": "ST. LOUIS DU SUD", "dep_nom": "SUD", "Latitude": 18.264103112803099, "Longitude": -73.456605456563906, "GMT_check": 1, "id": null }, "geometry": { "type": "MultiPoint", "coordinates": [ [ -73.456605456563906, 18.264103112803099 ] ] } },
{ "type": "Feature", "properties": { "fid": 28, "NOM_SITE": "École Nationale de Pointe Sable Port Salut", "COM_LOC": "PORT-SALUT", "dep_nom": "SUD", "Latitude": 18.0924383764849, "Longitude": -73.928527166589006, "GMT_check": 1, "id": null }, "geometry": { "type": "MultiPoint", "coordinates": [ [ -73.928527166589006, 18.0924383764849 ] ] } },
{ "type": "Feature", "properties": { "fid": 29, "NOM_SITE": "EFACAP de Carrefour Joute", "COM_LOC": "ST. JEAN DU SUD", "dep_nom": "SUD", "Latitude": 18.1079496172772, "Longitude": -73.846668696421105, "GMT_check": 1, "id": null }, "geometry": { "type": "MultiPoint", "coordinates": [ [ -73.846668696421105, 18.1079496172772 ] ] } },
{ "type": "Feature", "properties": { "fid": 36, "NOM_SITE": "Ecole Nationale La Pointe", "COM_LOC": "Port de Paix", "dep_nom": "NORD OUEST", "Latitude": 19.94512509, "Longitude": -72.78549491, "GMT_check": 1, "id": null }, "geometry": { "type": "MultiPoint", "coordinates": [ [ -72.78549491, 19.94512509 ] ] } },
{ "type": "Feature", "properties": { "fid": 38, "NOM_SITE": "Ecole Nationale de Fonduri", "COM_LOC": "Jean Rabel", "dep_nom": "NORD OUEST", "Latitude": 19.86074728, "Longitude": -73.07561691, "GMT_check": 1, "id": null }, "geometry": { "type": "MultiPoint", "coordinates": [ [ -73.07561691, 19.86074728 ] ] } },
{ "type": "Feature", "properties": { "fid": 41, "NOM_SITE": "Ecole Nationale de Bord de Mer", "COM_LOC": "Jean Rabel", "dep_nom": "NORD OUEST", "Latitude": 19.9052531, "Longitude": -73.1954364, "GMT_check": 1, "id": null }, "geometry": { "type": "MultiPoint", "coordinates": [ [ -73.1954364, 19.9052531 ] ] } },
{ "type": "Feature", "properties": { "fid": 50, "NOM_SITE": "EFACAP DAME Marie", "COM_LOC": "DAME-MARIE", "dep_nom": "GRANDE ANSE", "Latitude": 18.557992398883499, "Longitude": -74.416209941912996, "GMT_check": 1, "id": null }, "geometry": { "type": "MultiPoint", "coordinates": [ [ -74.416209941912996, 18.557992398883499 ] ] } },
{ "type": "Feature", "properties": { "fid": 52, "NOM_SITE": "Ecole Nationale mixte de Corail", "COM_LOC": "CORAIL", "dep_nom": "GRANDE ANSE", "Latitude": 18.565910503474601, "Longitude": -73.892814222668704, "GMT_check": 1, "id": null }, "geometry": { "type": "MultiPoint", "coordinates": [ [ -73.892814222668704, 18.565910503474601 ] ] } },
{ "type": "Feature", "properties": { "fid": 55, "NOM_SITE": "Lycée national de Moron", "COM_LOC": "MORON", "dep_nom": "GRANDE ANSE", "Latitude": 18.556573211537302, "Longitude": -74.2706507515867, "GMT_check": 1, "id": null }, "geometry": { "type": "MultiPoint", "coordinates": [ [ -74.2706507515867, 18.556573211537302 ] ] } },
{ "type": "Feature", "properties": { "fid": 56, "NOM_SITE": "Institution Pierre Toussaint", "COM_LOC": "JEREMIE", "dep_nom": "GRANDE ANSE", "Latitude": 18.581530102577702, "Longitude": -74.122068118752793, "GMT_check": 1, "id": null }, "geometry": { "type": "MultiPoint", "coordinates": [ [ -74.122068118752793, 18.581530102577702 ] ] } },
{ "type": "Feature", "properties": { "fid": 58, "NOM_SITE": "École Communautaire Notre Dame de Lamerci de Petite Rivière de Dame Marie", "COM_LOC": "DAME MARIE", "dep_nom": "GRANDE ANSE", "Latitude": 18.597391717594299, "Longitude": -74.415608416317895, "GMT_check": 1, "id": null }, "geometry": { "type": "MultiPoint", "coordinates": [ [ -74.415608416317895, 18.597391717594299 ] ] } },
{ "type": "Feature", "properties": { "fid": 59, "NOM_SITE": "Ecole Nationale De Fond Des Blancs", "COM_LOC": "Aquin", "dep_nom": "SUD", "Latitude": 18.28734387, "Longitude": -73.13623918, "GMT_check": 1, "id": null }, "geometry": { "type": "MultiPoint", "coordinates": [ [ -73.13623918, 18.28734387 ] ] } },
{ "type": "Feature", "properties": { "fid": 60, "NOM_SITE": "Ecole Nationale des Saints Anges de Anse Veau", "COM_LOC": "Anse a  Veau", "dep_nom": "NIPPES", "Latitude": 18.4954416666667, "Longitude": -73.341602777777794, "GMT_check": 1, "id": null }, "geometry": { "type": "MultiPoint", "coordinates": [ [ -73.341719147582694, 18.495322921967801 ] ] } },
{ "type": "Feature", "properties": { "fid": 61, "NOM_SITE": "Ecole Nationale de Joly", "COM_LOC": "Anse a  Veau", "dep_nom": "NIPPES", "Latitude": 18.472858333333299, "Longitude": -73.348541666666705, "GMT_check": 1, "id": null }, "geometry": { "type": "MultiPoint", "coordinates": [ [ -73.348482198215294, 18.472795768073201 ] ] } },
{ "type": "Feature", "properties": { "fid": 62, "NOM_SITE": "Terrain de Plaisance", "COM_LOC": "PLAISANCE DU SUD", "dep_nom": "NIPPES", "Latitude": 18.432652, "Longitude": -73.5955683, "GMT_check": 1, "id": null }, "geometry": { "type": "MultiPoint", "coordinates": [ [ -73.595565651074594, 18.432652 ] ] } }
]
}
